[Satellite]
VERSION=1.1
NAME=CZ-6A DEB
NICKNAME=CZ-6A DEB
TLE1=1 54639U 22151PR  22342.49409904  .00000124  00000+0  90512-4 0  9997
TLE2=2 54639  98.8006 347.0469 0029746  17.2292 342.9882 14.12413524  3617
STATUS=0
